satname,norad_id,inclination_deg,eccentricity,mean_motion_rev_per_day,perigee_km,apogee_km,l1,l2
STARLINK-1296,45412,53.1581,0.0002504,15.33662233,463.1834225052062,466.61041389144066,1 45412U 20019BE  26105.88642963  .00030612  00000+0  93493-3 0  9990,2 45412  53.1581 316.0646 0002504 212.5344 147.5504 15.33662233335673
STARLINK-1309,45414,53.0638,0.0005428,15.62305057,377.3316555877809,384.6693752745332,1 45414U 20019BG  26105.94963430  .00072615  00000+0  80530-3 0  9991,2 45414  53.0638 302.5832 0005428 189.4450 170.6463 15.62305057335842
STARLINK-1316,45415,53.1581,0.0002868,15.33897366,462.23520075626857,466.1599638726848,1 45415U 20019BH  26105.86539186  .00022672  00000+0  69094-3 0  9990,2 45415  53.1581 316.2014 0002868 223.9327 136.1448 15.33897366335697
STARLINK-1286,45417,53.0477,0.0003196,15.539218,403.1206529651254,407.4566186315278,1 45417U 20019BK  26105.94675752  .00028906  00000+0  44613-3 0  9997,2 45417  53.0477 311.2972 0003196 169.1607 190.9472 15.53921800336012
STARLINK-1308,45419,53.0511,0.0006028,15.57674946,390.3055430484101,398.4704992138859,1 45419U 20019BM  26105.91629318  .00061032  00000+0  80956-3 0  9990,2 45419  53.0511 332.3719 0006028 178.3981 181.7050 15.57674946335468
STARLINK-1329,45531,53.0437,0.0001617,15.67159632,365.9441287716245,368.125517339201,1 45531U 20025A   26105.85585377  .00035698  00000+0  33090-3 0  9997,2 45531  53.0437 259.4818 0001617 334.1692  25.9242 15.67159632331266
STARLINK-1338,45532,53.0462,8.79e-05,15.61550527,382.58333170417427,383.7719708198674,1 45532U 20025B   26105.84243710  .00068910  00000+0  78795-3 0  9993,2 45532  53.0462 264.2756 0000879 206.7264 153.3703 15.61550527331190
STARLINK-1350,45535,53.0716,9.7e-05,15.37062597,454.1380720195639,455.46366196576037,1 45535U 20025E   26105.60419163  .00006510  00000+0  18727-3 0  9994,2 45535  53.0716 219.6474 0000970 110.4103 249.7004 15.37062597331834
STARLINK-1362,45538,53.1612,0.0002412,15.32363341,467.1118512194844,470.4147959355796,1 45538U 20025H   26105.80122376 -.00166420  00000+0 -53576-2 0  9995,2 45538  53.1612 288.4150 0002412  79.6582 280.4692 15.32363341330861
STARLINK-1368,45540,53.1585,8.34e-05,15.32825045,466.8174292349795,467.9592628627006,1 45540U 20025K   26105.88013736  .00031671  00000+0  99254-3 0  9996,2 45540  53.1585 288.4219 0000834  59.8496 300.2589 15.32825045330869
STARLINK-1371,45542,53.0465,0.0002481,15.5347347,404.9104053236042,408.2769886954602,1 45542U 20025M   26105.75281463  .00061633  00000+0  95458-3 0  9991,2 45542  53.0465 271.5088 0002481 280.6153  79.4577 15.53473470331089
STARLINK-1372,45543,53.1589,5.62e-05,15.33225357,465.8121039707639,466.58140708488463,1 45543U 20025N   26105.92036834  .00032327  00000+0  10001-2 0  9999,2 45543  53.1589 287.9118 0000562  68.6467 291.4595 15.33225357329971
STARLINK-1373,45544,53.0458,0.0001911,15.57684355,393.06652438317997,395.65497302273434,1 45544U 20025P   26105.73711050  .00068347  00000+0  90520-3 0  9995,2 45544  53.0458 270.0749 0001911 222.0693 138.0172 15.57684355331103
STARLINK-1327,45555,53.0428,0.0003889,15.60233918,384.3498686274279,389.61177727011636,1 45555U 20025AA  26105.74596192  .00068972  00000+0  82931-3 0  9997,2 45555  53.0428 246.8287 0003889 227.2576 132.8109 15.60233918331429
STARLINK-1356,45564,53.0478,0.0002313,15.50778901,412.8795414057786,416.0217924605022,1 45564U 20025AK  26105.79492294  .00051411  00000+0  87943-3 0  9998,2 45564  53.0478 256.3997 0002313 214.2064 145.8795 15.50778901331292
STARLINK-1357,45565,53.0475,0.0006057,15.63802808,372.5926674572356,380.77545769243807,1 45565U 20025AL  26105.56157683  .00073206  00000+0  76547-3 0  9998,2 45565  53.0475 218.5160 0006057 308.0738  51.9729 15.63802808331811
STARLINK-1361,45567,53.047,0.0002816,15.53988157,403.1853696639182,407.0056862236561,1 45567U 20025AN  26105.87304836  .00061368  00000+0  93293-3 0  9991,2 45567  53.0470 255.2476 0002816 166.6257 193.4828 15.53988157331328
STARLINK-1363,45568,53.0376,0.0001221,15.87933725,307.2604145834821,308.8931879937563,1 45568U 20025AP  26106.00002315  .00113523  00000+0  40783-3 0  9992,2 45568  53.0376 209.9399 0001221 355.2612 158.5461 15.87933725  6023
STARLINK-1366,45569,53.0382,0.0001249,15.85432584,314.27097614368813,315.9429484854754,1 45569U 20025AQ  26105.32713137  .00093889  00000+0  38249-3 0  9994,2 45569  53.0382 214.5037 0001249 276.4301  83.6580 15.85432584331836
STARLINK-1376,45570,53.158,0.0002053,15.3362868,463.59183121936167,466.40162192749176,1 45570U 20025AR  26104.86761362  .00036744  00000+0  11202-2 0  9993,2 45570  53.1580 269.3730 0002053 284.1472  75.9302 15.33628680331042
STARLINK-1320,45572,53.0456,0.0002884,15.7524234,342.0030157131796,345.88031068611417,1 45572U 20025AT  26105.87371385  .00058066  00000+0  38021-3 0  9999,2 45572  53.0456 161.3566 0002884 107.8789 252.2544 15.75242340332654
STARLINK-1321,45573,53.046,0.0002866,15.5515671,399.7540305321836,403.64023145606916,1 45573U 20025AU  26105.79264644  .00060452  00000+0  88083-3 0  9995,2 45573  53.0460 239.9802 0002866 283.9778  76.0913 15.55156710331226
STARLINK-1331,45578,53.0493,0.0004877,15.54809975,399.39804817559707,406.01208152565323,1 45578U 20025AZ  26105.86840112  .00058835  00000+0  86835-3 0  9993,2 45578  53.0493 246.3527 0004877 263.7452  96.3003 15.54809975331459
STARLINK-1333,45580,53.157,7.64e-05,15.30808475,472.87541722620153,473.92233190783554,1 45580U 20025BB  26105.85570625  .00031679  00000+0  10571-2 0  9994,2 45580  53.1570 265.1573 0000764  61.4545 298.6533 15.30808475331190
STARLINK-1335,45581,53.1574,0.0001083,15.32287049,468.2490475137538,469.7321353500565,1 45581U 20025BC  26105.87390277  .00006820  00000+0  22718-3 0  9997,2 45581  53.1574 262.3899 0001083  32.5226 327.5842 15.32287049331224
STARLINK-1337,45582,53.0493,0.0005187,15.65727429,367.64664038527735,374.64834811961373,1 45582U 20025BD  26105.86535706  .00077435  00000+0  74970-3 0  9992,2 45582  53.0493 240.2123 0005187 277.1541  82.8884 15.65727429331522
STARLINK-1347,45586,53.0411,0.0003284,15.62101386,379.36812537836704,383.8079127708943,1 45586U 20025BH  26105.56637524  .00070088  00000+0  78418-3 0  9992,2 45586  53.0411 210.3666 0003284 315.8786  44.1964 15.62101386331911
STARLINK-1364,45589,53.0458,0.0004401,15.56324373,395.3232584125035,401.28788316331156,1 45589U 20025BL  26105.69389539  .00058306  00000+0  81411-3 0  9995,2 45589  53.0458 244.8577 0004401 227.6111 132.4528 15.56324373331443
STARLINK-1365,45590,53.0496,0.0003173,15.5133075,410.6849268845208,414.9944807007478,1 45590U 20025BM  26105.84907873  .00050636  00000+0  84949-3 0  9998,2 45590  53.0496 275.6907 0003173 217.9629 142.1156 15.51330750331049
STARLINK-1443,45660,53.1347,0.000156,15.28528711,479.139881333861,481.2796855302922,1 45660U 20035D   26105.83011322  .00029520  00000+0  10576-2 0  9993,2 45660  53.1347 253.1841 0001560 258.6503 101.4322 15.28528711324430
STARLINK-1446,45663,53.0235,0.00035,15.44524562,430.3915916018477,435.15923028950965,1 45663U 20035G   26105.39062520  .00017304  00000+0  37522-3 0  9991,2 45663  53.0235 184.8276 0003500  29.8777 330.2428 15.44524562325345
STARLINK-1448,45665,53.0463,0.0005432,15.60630943,382.15922017546654,389.5075976276976,1 45665U 20035J   26105.83128549  .00076229  00000+0  90104-3 0  9992,2 45665  53.0463 232.7920 0005432 264.2126  95.8267 15.60630943324701
STARLINK-1451,45668,53.0522,5.11e-05,15.12010161,529.7173999022243,530.4234186994545,1 45668U 20035M   26105.78642110  .00014050  00000+0  82422-3 0  9992,2 45668  53.0522 258.3183 0000511  82.4397 277.6653 15.12010161324359
STARLINK-1452,45669,53.0289,0.0001286,15.50601332,414.0956378743149,415.84282479701415,1 45669U 20035N   26105.74143034  .00049827  00000+0  85815-3 0  9999,2 45669  53.0289 204.4194 0001286 225.4411 134.6492 15.50601332325105
STARLINK-1453,45670,53.0429,0.0002015,15.61102547,383.1084258053279,385.83375686613635,1 45670U 20035P   26105.49368894  .00067212  00000+0  78219-3 0  9994,2 45670  53.0429 194.9219 0002015 359.9741   0.1271 15.61102547325102
STARLINK-1454,45671,53.0455,0.0004228,15.58952195,387.8265048423791,393.5502235703507,1 45671U 20035Q   26105.70753404  .00040570  00000+0  51656-3 0  9998,2 45671  53.0455 233.8922 0004228 245.6093 114.4477 15.58952195324671
STARLINK-1456,45673,53.0455,0.0005523,15.56808021,393.1601685470696,400.64387665143295,1 45673U 20035S   26105.61790367  .00062184  00000+0  85178-3 0  9990,2 45673  53.0455 228.2653 0005523 315.6824  44.3744 15.56808021324765
STARLINK-1457,45674,53.0409,0.0003829,15.91907546,294.389242717878,299.501020614307,1 45674U 20035T   26106.00002315  .00171732  22099-4  51730-3 0  9998,2 45674  53.0409 193.8734 0003829 327.5845  23.6103 15.91907546  6031
STARLINK-1458,45675,53.0493,0.0004742,15.48699185,417.3064619960678,423.7543181488127,1 45675U 20035U   26105.72876748  .00054489  00000+0  10017-2 0  9990,2 45675  53.0493 238.9354 0004742 255.3918 104.6564 15.48699185324581
STARLINK-1460,45676,53.1575,0.0001097,15.30773534,472.75151004979125,474.2547598954052,1 45676U 20035V   26105.69630638  .00029717  00000+0  99370-3 0  9999,2 45676  53.1575 253.0371 0001097  30.3525 329.7539 15.30773534324388
STARLINK-1392,45677,53.1567,0.0001047,15.33566278,464.46586471958017,465.89885579361817,1 45677U 20035W   26105.69057741  .00017056  00000+0  52844-3 0  9996,2 45677  53.1567 252.8817 0001047  81.5380 278.5741 15.33566278324423
STARLINK-1394,45679,53.0455,0.0006358,15.56780983,392.6728481053051,401.2880874773473,1 45679U 20035Y   26105.48643248  .00057614  00000+0  79076-3 0  9998,2 45679  53.0455 219.1235 0006358 320.4440  39.6106 15.56780983324878
STARLINK-1402,45685,53.0445,0.0006803,15.50883704,409.52386226645376,418.7654406814481,1 45685U 20035AE  26105.26550431  .00038849  00000+0  66457-3 0  9990,2 45685  53.0445 208.4402 0006803 348.0678  12.0168 15.50883704325014
